{
  "type": "FeatureCollection",
  "features": [
    {
      "type": "Feature",
      "properties": {
        "norad_id": 39617,
        "name": "ASTRA 5B (EGNOS/PRN 123)",
        "group": "gnss",
        "lat": 0.01784122358850904,
        "lon": -164.12768663890904,
        "alt_km": 35780.002652170566,
        "timestamp": "2025-12-16T05:49:09.456788+00:00",
        "meta_object_name": "ASTRA 5B (EGNOS/PRN 123)",
        "meta_object_id": "2014-011B",
        "meta_epoch": "2025-12-15T22:03:38.887776",
        "meta_mean_motion": 1.00274214,
        "meta_eccentricity": 0.00042211,
        "meta_inclination": 0.0668,
        "meta_ra_of_asc_node": 43.743,
        "meta_arg_of_pericenter": 224.7979,
        "meta_mean_anomaly": 170.6904,
        "meta_ephemeris_type": 0,
        "meta_classification_type": "U",
        "meta_norad_cat_id": 39617,
        "meta_element_set_no": 999,
        "meta_rev_at_epoch": 4283,
        "meta_bstar": 0,
        "meta_mean_motion_dot": 1.6e-06,
        "meta_mean_motion_ddot": 0,
        "tle_line1": "1 39617U 14011B   25349.91920009  .00000160  00000+0  00000+0 0  9991",
        "tle_line2": "2 39617   0.0668  43.7430 0004221 224.7979 170.6904  1.00274214 42833"
      },
      "geometry": {
        "type": "Point",
        "coordinates": [
          -164.12768663890904,
          0.01784122358850904
        ]
      }
    },
    {
      "type": "Feature",
      "properties": {
        "norad_id": 39620,
        "name": "COSMOS 2492 (754)",
        "group": "gnss",
        "lat": -55.45143076837996,
        "lon": -81.55041927466887,
        "alt_km": 19101.234863304224,
        "timestamp": "2025-12-16T05:49:09.456799+00:00",
        "meta_object_name": "COSMOS 2492 (754)",
        "meta_object_id": "2014-012A",
        "meta_epoch": "2025-12-15T20:35:02.650848",
        "meta_mean_motion": 2.13103255,
        "meta_eccentricity": 0.00142146,
        "meta_inclination": 65.4057,
        "meta_ra_of_asc_node": 320.1641,
        "meta_arg_of_pericenter": 312.2787,
        "meta_mean_anomaly": 47.5956,
        "meta_ephemeris_type": 0,
        "meta_classification_type": "U",
        "meta_norad_cat_id": 39620,
        "meta_element_set_no": 999,
        "meta_rev_at_epoch": 9133,
        "meta_bstar": 0,
        "meta_mean_motion_dot": -6.8e-07,
        "meta_mean_motion_ddot": 0,
        "tle_line1": "1 39620U 14012A   25349.85766957 -.00000068  00000+0  00000+0 0  9997",
        "tle_line2": "2 39620  65.4057 320.1641 0014214 312.2787  47.5956  2.13103255 91332"
      },
      "geometry": {
        "type": "Point",
        "coordinates": [
          -81.55041927466887,
          -55.45143076837996
        ]
      }
    },
    {
      "type": "Feature",
      "properties": {
        "norad_id": 39635,
        "name": "IRNSS-1B",
        "group": "gnss",
        "lat": -7.464695605983314,
        "lon": -129.94638365089736,
        "alt_km": 35818.70520876668,
        "timestamp": "2025-12-16T05:49:09.456813+00:00",
        "meta_object_name": "IRNSS-1B",
        "meta_object_id": "2014-017A",
        "meta_epoch": "2025-12-11T18:54:44.030304",
        "meta_mean_motion": 1.00285038,
        "meta_eccentricity": 0.00181492,
        "meta_inclination": 29.2271,
        "meta_ra_of_asc_node": 243.6214,
        "meta_arg_of_pericenter": 227.0185,
        "meta_mean_anomaly": 309.1991,
        "meta_ephemeris_type": 0,
        "meta_classification_type": "U",
        "meta_norad_cat_id": 39635,
        "meta_element_set_no": 999,
        "meta_rev_at_epoch": 4291,
        "meta_bstar": 0,
        "meta_mean_motion_dot": 1.07e-06,
        "meta_mean_motion_ddot": 0,
        "tle_line1": "1 39635U 14017A   25345.78800961  .00000107  00000+0  00000+0 0  9993",
        "tle_line2": "2 39635  29.2271 243.6214 0018149 227.0185 309.1991  1.00285038 42916"
      },
      "geometry": {
        "type": "Point",
        "coordinates": [
          -129.94638365089736,
          -7.464695605983314
        ]
      }
    },
    {
      "type": "Feature",
      "properties": {
        "norad_id": 39727,
        "name": "LUCH 5V (SDCM/PRN 141)",
        "group": "gnss",
        "lat": -1.2807705458612202,
        "lon": -92.93307502914458,
        "alt_km": 35769.22211177329,
        "timestamp": "2025-12-16T05:49:09.456825+00:00",
        "meta_object_name": "LUCH 5V (SDCM/PRN 141)",
        "meta_object_id": "2014-023A",
        "meta_epoch": "2025-12-15T18:58:29.535168",
        "meta_mean_motion": 1.00268411,
        "meta_eccentricity": 0.00043859,
        "meta_inclination": 4.677,
        "meta_ra_of_asc_node": 71.5106,
        "meta_arg_of_pericenter": 209.4827,
        "meta_mean_anomaly": 183.0334,
        "meta_ephemeris_type": 0,
        "meta_classification_type": "U",
        "meta_norad_cat_id": 39727,
        "meta_element_set_no": 999,
        "meta_rev_at_epoch": 4252,
        "meta_bstar": 0,
        "meta_mean_motion_dot": -2.49e-06,
        "meta_mean_motion_ddot": 0,
        "tle_line1": "1 39727U 14023A   25349.79061962 -.00000249  00000+0  00000+0 0  9995",
        "tle_line2": "2 39727   4.6770  71.5106 0004385 209.4827 183.0334  1.00268411 42524"
      },
      "geometry": {
        "type": "Point",
        "coordinates": [
          -92.93307502914458,
          -1.2807705458612202
        ]
      }
    },
    {
      "type": "Feature",
      "properties": {
        "norad_id": 39741,
        "name": "GPS BIIF-6  (PRN 06)",
        "group": "gnss",
        "lat": -5.05303365700786,
        "lon": 161.9801927439991,
        "alt_km": 20253.904095988455,
        "timestamp": "2025-12-16T05:49:09.456837+00:00",
        "meta_object_name": "GPS BIIF-6  (PRN 06)",
        "meta_object_id": "2014-026A",
        "meta_epoch": "2025-12-15T11:38:58.689600",
        "meta_mean_motion": 2.00561238,
        "meta_eccentricity": 0.00392615,
        "meta_inclination": 56.5825,
        "meta_ra_of_asc_node": 338.6695,
        "meta_arg_of_pericenter": 318.8449,
        "meta_mean_anomaly": 40.8708,
        "meta_ephemeris_type": 0,
        "meta_classification_type": "U",
        "meta_norad_cat_id": 39741,
        "meta_element_set_no": 999,
        "meta_rev_at_epoch": 8485,
        "meta_bstar": 0,
        "meta_mean_motion_dot": -8.7e-07,
        "meta_mean_motion_ddot": 0,
        "tle_line1": "1 39741U 14026A   25349.48540150 -.00000087  00000+0  00000+0 0  9991",
        "tle_line2": "2 39741  56.5825 338.6695 0039261 318.8449  40.8708  2.00561238 84854"
      },
      "geometry": {
        "type": "Point",
        "coordinates": [
          161.9801927439991,
          -5.05303365700786
        ]
      }
    },
    {
      "type": "Feature",
      "properties": {
        "norad_id": 40001,
        "name": "COSMOS 2500 (755)",
        "group": "gnss",
        "lat": 15.355295945040975,
        "lon": 132.6545266618138,
        "alt_km": 19116.501870361597,
        "timestamp": "2025-12-16T05:49:09.456848+00:00",
        "meta_object_name": "COSMOS 2500 (755)",
        "meta_object_id": "2014-032A",
        "meta_epoch": "2025-12-15T13:27:13.709376",
        "meta_mean_motion": 2.1310598,
        "meta_eccentricity": 0.00081492,
        "meta_inclination": 65.3414,
        "meta_ra_of_asc_node": 319.9362,
        "meta_arg_of_pericenter": 219.0671,
        "meta_mean_anomaly": 140.8696,
        "meta_ephemeris_type": 0,
        "meta_classification_type": "U",
        "meta_norad_cat_id": 40001,
        "meta_element_set_no": 999,
        "meta_rev_at_epoch": 8954,
        "meta_bstar": 0,
        "meta_mean_motion_dot": -6.8e-07,
        "meta_mean_motion_ddot": 0,
        "tle_line1": "1 40001U 14032A   25349.56057534 -.00000068  00000+0  00000+0 0  9996",
        "tle_line2": "2 40001  65.3414 319.9362 0008149 219.0671 140.8696  2.13105980 89540"
      },
      "geometry": {
        "type": "Point",
        "coordinates": [
          132.6545266618138,
          15.355295945040975
        ]
      }
    },
    {
      "type": "Feature",
      "properties": {
        "norad_id": 40105,
        "name": "GPS BIIF-7  (PRN 09)",
        "group": "gnss",
        "lat": 42.9399724188465,
        "lon": -124.46310022264227,
        "alt_km": 20089.654843654756,
        "timestamp": "2025-12-16T05:49:09.456859+00:00",
        "meta_object_name": "GPS BIIF-7  (PRN 09)",
        "meta_object_id": "2014-045A",
        "meta_epoch": "2025-12-12T01:59:18.865536",
        "meta_mean_motion": 2.00572516,
        "meta_eccentricity": 0.00326941,
        "meta_inclination": 55.2287,
        "meta_ra_of_asc_node": 95.9251,
        "meta_arg_of_pericenter": 119.8618,
        "meta_mean_anomaly": 240.4523,
        "meta_ephemeris_type": 0,
        "meta_classification_type": "U",
        "meta_norad_cat_id": 40105,
        "meta_element_set_no": 999,
        "meta_rev_at_epoch": 8232,
        "meta_bstar": 0,
        "meta_mean_motion_dot": -9e-08,
        "meta_mean_motion_ddot": 0,
        "tle_line1": "1 40105U 14045A   25346.08285724 -.00000009  00000+0  00000+0 0  9998",
        "tle_line2": "2 40105  55.2287  95.9251 0032694 119.8618 240.4523  2.00572516 82323"
      },
      "geometry": {
        "type": "Point",
        "coordinates": [
          -124.46310022264227,
          42.9399724188465
        ]
      }
    }
  ]
}